{"1":{"1228":{"id":1228,"name":"LOUISaaa","surname":"GONZALES","address":"135 BLUE STREET","suburb":"BRISBANE","state":"NT","zip":8741,"mobile":0,"alt_phone":638416074,"home_phone":845301525,"diff":2},"1258":{"id":1258,"name":"LOUISAwww","surname":"GONZALESA","address":"135 BLUE STREET","suburb":"BRISBANEA","state":"NT","zip":8741,"mobile":0,"alt_phone":638416074,"home_phone":845301525,"diff":3},"1196":{"id":1196,"name":"ROYaa","surname":"GONZALES","address":"16 PARK STREET","suburb":"SYDNEY","state":"NT","zip":7897,"mobile":0,"alt_phone":632667735,"home_phone":367948051,"diff":11},"884":{"id":884,"name":"MARK","surname":"GONZALES","address":"101 ST STREET","suburb":"MELBOURNE","state":"SA","zip":2682,"mobile":0,"alt_phone":641193473,"home_phone":216744278,"diff":14},"890":{"id":890,"name":"LOUISE","surname":"LOPEZ","address":"42 BENT STREET","suburb":"PERTH","state":"VIC","zip":3585,"mobile":0,"alt_phone":930673292,"home_phone":830985935,"diff":15},"1165":{"id":1165,"name":"JOSHUA","surname":"GONZALEZ","address":"182 MARTIN STREET","suburb":"MELBOURNE","state":"SA","zip":2167,"mobile":0,"alt_phone":891443707,"home_phone":566246007,"diff":15},"1219":{"id":1219,"name":"DANIEL","surname":"LOPEZ","address":"157 BLUE STREET","suburb":"SYDNEY","state":"NSW","zip":2258,"mobile":0,"alt_phone":908730431,"home_phone":698713685,"diff":15},"867":{"id":867,"name":"GLORIA","surname":"BRYANT","address":"145 BENT STREET","suburb":"SYDNEY","state":"VIC","zip":7873,"mobile":0,"alt_phone":255333801,"home_phone":181915067,"diff":16},"980":{"id":980,"name":"LOUIS","surname":"FOSTER","address":"79 DALLEY STREET","suburb":"SYDNEY","state":"SA","zip":2382,"mobile":0,"alt_phone":324272218,"home_phone":716915317,"diff":16},"1175":{"id":1175,"name":"EUGENE","surname":"JOHNSON","address":"93 BLUE STREET","suburb":"SYDNEY","state":"SA","zip":4609,"mobile":0,"alt_phone":835754887,"home_phone":343406636,"diff":16}},"4":{"1257":{"id":1257,"name":"ASHLEYBA","surname":"GRIFFINB","address":"103 PYRMONT STREET","suburb":"BRISBANE","state":"WA","zip":3349,"mobile":null,"alt_phone":960643922,"home_phone":null,"diff":3},"1229":{"id":1229,"name":"ASHLEYssss","surname":"GRIFFIN","address":"103 PYRMONT STREET","suburb":"BRISBANE","state":"WA","zip":3349,"mobile":0,"alt_phone":960643922,"home_phone":359652541,"diff":4},"898":{"id":898,"name":"GARY","surname":"GRIFFIN","address":"101 SIR STREET","suburb":"CAIRNSqqqq","state":"WA","zip":7248,"mobile":0,"alt_phone":870474170,"home_phone":991784044,"diff":12},"1047":{"id":1047,"name":"JUSTIN","surname":"GRIFFIN","address":"107 DRUITT STREET","suburb":"BRISBANE","state":"NSW","zip":1088,"mobile":0,"alt_phone":228654350,"home_phone":200045035,"diff":12},"1007":{"id":1007,"name":"SARA","surname":"REED","address":"144 PYRMONT STREET","suburb":"CAIRNS","state":"WA","zip":7261,"mobile":0,"alt_phone":794036588,"home_phone":865548850,"diff":13},"1066":{"id":1066,"name":"FRED","surname":"LOPEZ","address":"173 PYRMONT STREET","suburb":"CAIRNS","state":"WA","zip":9399,"mobile":0,"alt_phone":536429193,"home_phone":574623751,"diff":13},"920":{"id":920,"name":"SCOTT","surname":"GRIFFIN","address":"2 MARGARET STREET","suburb":"SYDNEY","state":"SA","zip":4878,"mobile":0,"alt_phone":396900025,"home_phone":713170156,"diff":14},"979":{"id":979,"name":"ASHLEY","surname":"NELSON","address":"165 SIR STREET","suburb":"SYDNEY","state":"VIC","zip":4479,"mobile":0,"alt_phone":852261768,"home_phone":160689771,"diff":14},"811":{"id":811,"name":"HARRY","surname":"STEWART","address":"82 PYRMONT STREET","suburb":"MELBOURNE","state":"QLD","zip":2006,"mobile":0,"alt_phone":701580687,"home_phone":879762557,"diff":15},"950":{"id":950,"name":"NANCY","surname":"KELLY","address":"59 PYRMONT STREET","suburb":"BRISBANE","state":"QLD","zip":4763,"mobile":0,"alt_phone":807215214,"home_phone":280698393,"diff":15}},"83":{"1228":{"id":1228,"name":"LOUISaaa","surname":"GONZALES","address":"135 BLUE STREET","suburb":"BRISBANE","state":"NT","zip":8741,"mobile":0,"alt_phone":638416074,"home_phone":845301525,"diff":2},"1258":{"id":1258,"name":"LOUISAwww","surname":"GONZALESA","address":"135 BLUE STREET","suburb":"BRISBANEA","state":"NT","zip":8741,"mobile":0,"alt_phone":638416074,"home_phone":845301525,"diff":3},"1196":{"id":1196,"name":"ROYaa","surname":"GONZALES","address":"16 PARK STREET","suburb":"SYDNEY","state":"NT","zip":7897,"mobile":0,"alt_phone":632667735,"home_phone":367948051,"diff":11},"884":{"id":884,"name":"MARK","surname":"GONZALES","address":"101 ST STREET","suburb":"MELBOURNE","state":"SA","zip":2682,"mobile":0,"alt_phone":641193473,"home_phone":216744278,"diff":14},"890":{"id":890,"name":"LOUISE","surname":"LOPEZ","address":"42 BENT STREET","suburb":"PERTH","state":"VIC","zip":3585,"mobile":0,"alt_phone":930673292,"home_phone":830985935,"diff":15},"1165":{"id":1165,"name":"JOSHUA","surname":"GONZALEZ","address":"182 MARTIN STREET","suburb":"MELBOURNE","state":"SA","zip":2167,"mobile":0,"alt_phone":891443707,"home_phone":566246007,"diff":15},"1219":{"id":1219,"name":"DANIEL","surname":"LOPEZ","address":"157 BLUE STREET","suburb":"SYDNEY","state":"NSW","zip":2258,"mobile":0,"alt_phone":908730431,"home_phone":698713685,"diff":15},"867":{"id":867,"name":"GLORIA","surname":"BRYANT","address":"145 BENT STREET","suburb":"SYDNEY","state":"VIC","zip":7873,"mobile":0,"alt_phone":255333801,"home_phone":181915067,"diff":16},"980":{"id":980,"name":"LOUIS","surname":"FOSTER","address":"79 DALLEY STREET","suburb":"SYDNEY","state":"SA","zip":2382,"mobile":0,"alt_phone":324272218,"home_phone":716915317,"diff":16},"1175":{"id":1175,"name":"EUGENE","surname":"JOHNSON","address":"93 BLUE STREET","suburb":"SYDNEY","state":"SA","zip":4609,"mobile":0,"alt_phone":835754887,"home_phone":343406636,"diff":16}},"84":{"1228":{"id":1228,"name":"LOUISaaa","surname":"GONZALES","address":"135 BLUE STREET","suburb":"BRISBANE","state":"NT","zip":8741,"mobile":0,"alt_phone":638416074,"home_phone":845301525,"diff":2},"1258":{"id":1258,"name":"LOUISAwww","surname":"GONZALESA","address":"135 BLUE STREET","suburb":"BRISBANEA","state":"NT","zip":8741,"mobile":0,"alt_phone":638416074,"home_phone":845301525,"diff":3},"1196":{"id":1196,"name":"ROYaa","surname":"GONZALES","address":"16 PARK STREET","suburb":"SYDNEY","state":"NT","zip":7897,"mobile":0,"alt_phone":632667735,"home_phone":367948051,"diff":11},"884":{"id":884,"name":"MARK","surname":"GONZALES","address":"101 ST STREET","suburb":"MELBOURNE","state":"SA","zip":2682,"mobile":0,"alt_phone":641193473,"home_phone":216744278,"diff":14},"890":{"id":890,"name":"LOUISE","surname":"LOPEZ","address":"42 BENT STREET","suburb":"PERTH","state":"VIC","zip":3585,"mobile":0,"alt_phone":930673292,"home_phone":830985935,"diff":15},"1165":{"id":1165,"name":"JOSHUA","surname":"GONZALEZ","address":"182 MARTIN STREET","suburb":"MELBOURNE","state":"SA","zip":2167,"mobile":0,"alt_phone":891443707,"home_phone":566246007,"diff":15},"1219":{"id":1219,"name":"DANIEL","surname":"LOPEZ","address":"157 BLUE STREET","suburb":"SYDNEY","state":"NSW","zip":2258,"mobile":0,"alt_phone":908730431,"home_phone":698713685,"diff":15},"867":{"id":867,"name":"GLORIA","surname":"BRYANT","address":"145 BENT STREET","suburb":"SYDNEY","state":"VIC","zip":7873,"mobile":0,"alt_phone":255333801,"home_phone":181915067,"diff":16},"980":{"id":980,"name":"LOUIS","surname":"FOSTER","address":"79 DALLEY STREET","suburb":"SYDNEY","state":"SA","zip":2382,"mobile":0,"alt_phone":324272218,"home_phone":716915317,"diff":16},"1175":{"id":1175,"name":"EUGENE","surname":"JOHNSON","address":"93 BLUE STREET","suburb":"SYDNEY","state":"SA","zip":4609,"mobile":0,"alt_phone":835754887,"home_phone":343406636,"diff":16}},"85":{"1228":{"id":1228,"name":"LOUISaaa","surname":"GONZALES","address":"135 BLUE STREET","suburb":"BRISBANE","state":"NT","zip":8741,"mobile":0,"alt_phone":638416074,"home_phone":845301525,"diff":2},"1258":{"id":1258,"name":"LOUISAwww","surname":"GONZALESA","address":"135 BLUE STREET","suburb":"BRISBANEA","state":"NT","zip":8741,"mobile":0,"alt_phone":638416074,"home_phone":845301525,"diff":3},"1196":{"id":1196,"name":"ROYaa","surname":"GONZALES","address":"16 PARK STREET","suburb":"SYDNEY","state":"NT","zip":7897,"mobile":0,"alt_phone":632667735,"home_phone":367948051,"diff":11},"884":{"id":884,"name":"MARK","surname":"GONZALES","address":"101 ST STREET","suburb":"MELBOURNE","state":"SA","zip":2682,"mobile":0,"alt_phone":641193473,"home_phone":216744278,"diff":14},"890":{"id":890,"name":"LOUISE","surname":"LOPEZ","address":"42 BENT STREET","suburb":"PERTH","state":"VIC","zip":3585,"mobile":0,"alt_phone":930673292,"home_phone":830985935,"diff":15},"1165":{"id":1165,"name":"JOSHUA","surname":"GONZALEZ","address":"182 MARTIN STREET","suburb":"MELBOURNE","state":"SA","zip":2167,"mobile":0,"alt_phone":891443707,"home_phone":566246007,"diff":15},"1219":{"id":1219,"name":"DANIEL","surname":"LOPEZ","address":"157 BLUE STREET","suburb":"SYDNEY","state":"NSW","zip":2258,"mobile":0,"alt_phone":908730431,"home_phone":698713685,"diff":15},"867":{"id":867,"name":"GLORIA","surname":"BRYANT","address":"145 BENT STREET","suburb":"SYDNEY","state":"VIC","zip":7873,"mobile":0,"alt_phone":255333801,"home_phone":181915067,"diff":16},"980":{"id":980,"name":"LOUIS","surname":"FOSTER","address":"79 DALLEY STREET","suburb":"SYDNEY","state":"SA","zip":2382,"mobile":0,"alt_phone":324272218,"home_phone":716915317,"diff":16},"1175":{"id":1175,"name":"EUGENE","surname":"JOHNSON","address":"93 BLUE STREET","suburb":"SYDNEY","state":"SA","zip":4609,"mobile":0,"alt_phone":835754887,"home_phone":343406636,"diff":16}},"86":{"1228":{"id":1228,"name":"LOUISaaa","surname":"GONZALES","address":"135 BLUE STREET","suburb":"BRISBANE","state":"NT","zip":8741,"mobile":0,"alt_phone":638416074,"home_phone":845301525,"diff":2},"1258":{"id":1258,"name":"LOUISAwww","surname":"GONZALESA","address":"135 BLUE STREET","suburb":"BRISBANEA","state":"NT","zip":8741,"mobile":0,"alt_phone":638416074,"home_phone":845301525,"diff":3},"1196":{"id":1196,"name":"ROYaa","surname":"GONZALES","address":"16 PARK STREET","suburb":"SYDNEY","state":"NT","zip":7897,"mobile":0,"alt_phone":632667735,"home_phone":367948051,"diff":11},"884":{"id":884,"name":"MARK","surname":"GONZALES","address":"101 ST STREET","suburb":"MELBOURNE","state":"SA","zip":2682,"mobile":0,"alt_phone":641193473,"home_phone":216744278,"diff":14},"890":{"id":890,"name":"LOUISE","surname":"LOPEZ","address":"42 BENT STREET","suburb":"PERTH","state":"VIC","zip":3585,"mobile":0,"alt_phone":930673292,"home_phone":830985935,"diff":15},"1165":{"id":1165,"name":"JOSHUA","surname":"GONZALEZ","address":"182 MARTIN STREET","suburb":"MELBOURNE","state":"SA","zip":2167,"mobile":0,"alt_phone":891443707,"home_phone":566246007,"diff":15},"1219":{"id":1219,"name":"DANIEL","surname":"LOPEZ","address":"157 BLUE STREET","suburb":"SYDNEY","state":"NSW","zip":2258,"mobile":0,"alt_phone":908730431,"home_phone":698713685,"diff":15},"867":{"id":867,"name":"GLORIA","surname":"BRYANT","address":"145 BENT STREET","suburb":"SYDNEY","state":"VIC","zip":7873,"mobile":0,"alt_phone":255333801,"home_phone":181915067,"diff":16},"980":{"id":980,"name":"LOUIS","surname":"FOSTER","address":"79 DALLEY STREET","suburb":"SYDNEY","state":"SA","zip":2382,"mobile":0,"alt_phone":324272218,"home_phone":716915317,"diff":16},"1175":{"id":1175,"name":"EUGENE","surname":"JOHNSON","address":"93 BLUE STREET","suburb":"SYDNEY","state":"SA","zip":4609,"mobile":0,"alt_phone":835754887,"home_phone":343406636,"diff":16}},"87":{"1228":{"id":1228,"name":"LOUISaaa","surname":"GONZALES","address":"135 BLUE STREET","suburb":"BRISBANE","state":"NT","zip":8741,"mobile":0,"alt_phone":638416074,"home_phone":845301525,"diff":2},"1258":{"id":1258,"name":"LOUISAwww","surname":"GONZALESA","address":"135 BLUE STREET","suburb":"BRISBANEA","state":"NT","zip":8741,"mobile":0,"alt_phone":638416074,"home_phone":845301525,"diff":3},"1196":{"id":1196,"name":"ROYaa","surname":"GONZALES","address":"16 PARK STREET","suburb":"SYDNEY","state":"NT","zip":7897,"mobile":0,"alt_phone":632667735,"home_phone":367948051,"diff":11},"884":{"id":884,"name":"MARK","surname":"GONZALES","address":"101 ST STREET","suburb":"MELBOURNE","state":"SA","zip":2682,"mobile":0,"alt_phone":641193473,"home_phone":216744278,"diff":14},"890":{"id":890,"name":"LOUISE","surname":"LOPEZ","address":"42 BENT STREET","suburb":"PERTH","state":"VIC","zip":3585,"mobile":0,"alt_phone":930673292,"home_phone":830985935,"diff":15},"1165":{"id":1165,"name":"JOSHUA","surname":"GONZALEZ","address":"182 MARTIN STREET","suburb":"MELBOURNE","state":"SA","zip":2167,"mobile":0,"alt_phone":891443707,"home_phone":566246007,"diff":15},"1219":{"id":1219,"name":"DANIEL","surname":"LOPEZ","address":"157 BLUE STREET","suburb":"SYDNEY","state":"NSW","zip":2258,"mobile":0,"alt_phone":908730431,"home_phone":698713685,"diff":15},"867":{"id":867,"name":"GLORIA","surname":"BRYANT","address":"145 BENT STREET","suburb":"SYDNEY","state":"VIC","zip":7873,"mobile":0,"alt_phone":255333801,"home_phone":181915067,"diff":16},"980":{"id":980,"name":"LOUIS","surname":"FOSTER","address":"79 DALLEY STREET","suburb":"SYDNEY","state":"SA","zip":2382,"mobile":0,"alt_phone":324272218,"home_phone":716915317,"diff":16},"1175":{"id":1175,"name":"EUGENE","surname":"JOHNSON","address":"93 BLUE STREET","suburb":"SYDNEY","state":"SA","zip":4609,"mobile":0,"alt_phone":835754887,"home_phone":343406636,"diff":16}},"88":{"1228":{"id":1228,"name":"LOUISaaa","surname":"GONZALES","address":"135 BLUE STREET","suburb":"BRISBANE","state":"NT","zip":8741,"mobile":0,"alt_phone":638416074,"home_phone":845301525,"diff":2},"1258":{"id":1258,"name":"LOUISAwww","surname":"GONZALESA","address":"135 BLUE STREET","suburb":"BRISBANEA","state":"NT","zip":8741,"mobile":0,"alt_phone":638416074,"home_phone":845301525,"diff":3},"1196":{"id":1196,"name":"ROYaa","surname":"GONZALES","address":"16 PARK STREET","suburb":"SYDNEY","state":"NT","zip":7897,"mobile":0,"alt_phone":632667735,"home_phone":367948051,"diff":11},"884":{"id":884,"name":"MARK","surname":"GONZALES","address":"101 ST STREET","suburb":"MELBOURNE","state":"SA","zip":2682,"mobile":0,"alt_phone":641193473,"home_phone":216744278,"diff":14},"890":{"id":890,"name":"LOUISE","surname":"LOPEZ","address":"42 BENT STREET","suburb":"PERTH","state":"VIC","zip":3585,"mobile":0,"alt_phone":930673292,"home_phone":830985935,"diff":15},"1165":{"id":1165,"name":"JOSHUA","surname":"GONZALEZ","address":"182 MARTIN STREET","suburb":"MELBOURNE","state":"SA","zip":2167,"mobile":0,"alt_phone":891443707,"home_phone":566246007,"diff":15},"1219":{"id":1219,"name":"DANIEL","surname":"LOPEZ","address":"157 BLUE STREET","suburb":"SYDNEY","state":"NSW","zip":2258,"mobile":0,"alt_phone":908730431,"home_phone":698713685,"diff":15},"867":{"id":867,"name":"GLORIA","surname":"BRYANT","address":"145 BENT STREET","suburb":"SYDNEY","state":"VIC","zip":7873,"mobile":0,"alt_phone":255333801,"home_phone":181915067,"diff":16},"980":{"id":980,"name":"LOUIS","surname":"FOSTER","address":"79 DALLEY STREET","suburb":"SYDNEY","state":"SA","zip":2382,"mobile":0,"alt_phone":324272218,"home_phone":716915317,"diff":16},"1175":{"id":1175,"name":"EUGENE","surname":"JOHNSON","address":"93 BLUE STREET","suburb":"SYDNEY","state":"SA","zip":4609,"mobile":0,"alt_phone":835754887,"home_phone":343406636,"diff":16}},"89":{"1228":{"id":1228,"name":"LOUISaaa","surname":"GONZALES","address":"135 BLUE STREET","suburb":"BRISBANE","state":"NT","zip":8741,"mobile":0,"alt_phone":638416074,"home_phone":845301525,"diff":2},"1258":{"id":1258,"name":"LOUISAwww","surname":"GONZALESA","address":"135 BLUE STREET","suburb":"BRISBANEA","state":"NT","zip":8741,"mobile":0,"alt_phone":638416074,"home_phone":845301525,"diff":3},"1196":{"id":1196,"name":"ROYaa","surname":"GONZALES","address":"16 PARK STREET","suburb":"SYDNEY","state":"NT","zip":7897,"mobile":0,"alt_phone":632667735,"home_phone":367948051,"diff":11},"884":{"id":884,"name":"MARK","surname":"GONZALES","address":"101 ST STREET","suburb":"MELBOURNE","state":"SA","zip":2682,"mobile":0,"alt_phone":641193473,"home_phone":216744278,"diff":14},"890":{"id":890,"name":"LOUISE","surname":"LOPEZ","address":"42 BENT STREET","suburb":"PERTH","state":"VIC","zip":3585,"mobile":0,"alt_phone":930673292,"home_phone":830985935,"diff":15},"1165":{"id":1165,"name":"JOSHUA","surname":"GONZALEZ","address":"182 MARTIN STREET","suburb":"MELBOURNE","state":"SA","zip":2167,"mobile":0,"alt_phone":891443707,"home_phone":566246007,"diff":15},"1219":{"id":1219,"name":"DANIEL","surname":"LOPEZ","address":"157 BLUE STREET","suburb":"SYDNEY","state":"NSW","zip":2258,"mobile":0,"alt_phone":908730431,"home_phone":698713685,"diff":15},"867":{"id":867,"name":"GLORIA","surname":"BRYANT","address":"145 BENT STREET","suburb":"SYDNEY","state":"VIC","zip":7873,"mobile":0,"alt_phone":255333801,"home_phone":181915067,"diff":16},"980":{"id":980,"name":"LOUIS","surname":"FOSTER","address":"79 DALLEY STREET","suburb":"SYDNEY","state":"SA","zip":2382,"mobile":0,"alt_phone":324272218,"home_phone":716915317,"diff":16},"1175":{"id":1175,"name":"EUGENE","surname":"JOHNSON","address":"93 BLUE STREET","suburb":"SYDNEY","state":"SA","zip":4609,"mobile":0,"alt_phone":835754887,"home_phone":343406636,"diff":16}},"90":{"1228":{"id":1228,"name":"LOUISaaa","surname":"GONZALES","address":"135 BLUE STREET","suburb":"BRISBANE","state":"NT","zip":8741,"mobile":0,"alt_phone":638416074,"home_phone":845301525,"diff":2},"1258":{"id":1258,"name":"LOUISAwww","surname":"GONZALESA","address":"135 BLUE STREET","suburb":"BRISBANEA","state":"NT","zip":8741,"mobile":0,"alt_phone":638416074,"home_phone":845301525,"diff":3},"1196":{"id":1196,"name":"ROYaa","surname":"GONZALES","address":"16 PARK STREET","suburb":"SYDNEY","state":"NT","zip":7897,"mobile":0,"alt_phone":632667735,"home_phone":367948051,"diff":11},"884":{"id":884,"name":"MARK","surname":"GONZALES","address":"101 ST STREET","suburb":"MELBOURNE","state":"SA","zip":2682,"mobile":0,"alt_phone":641193473,"home_phone":216744278,"diff":14},"890":{"id":890,"name":"LOUISE","surname":"LOPEZ","address":"42 BENT STREET","suburb":"PERTH","state":"VIC","zip":3585,"mobile":0,"alt_phone":930673292,"home_phone":830985935,"diff":15},"1165":{"id":1165,"name":"JOSHUA","surname":"GONZALEZ","address":"182 MARTIN STREET","suburb":"MELBOURNE","state":"SA","zip":2167,"mobile":0,"alt_phone":891443707,"home_phone":566246007,"diff":15},"1219":{"id":1219,"name":"DANIEL","surname":"LOPEZ","address":"157 BLUE STREET","suburb":"SYDNEY","state":"NSW","zip":2258,"mobile":0,"alt_phone":908730431,"home_phone":698713685,"diff":15},"867":{"id":867,"name":"GLORIA","surname":"BRYANT","address":"145 BENT STREET","suburb":"SYDNEY","state":"VIC","zip":7873,"mobile":0,"alt_phone":255333801,"home_phone":181915067,"diff":16},"980":{"id":980,"name":"LOUIS","surname":"FOSTER","address":"79 DALLEY STREET","suburb":"SYDNEY","state":"SA","zip":2382,"mobile":0,"alt_phone":324272218,"home_phone":716915317,"diff":16},"1175":{"id":1175,"name":"EUGENE","surname":"JOHNSON","address":"93 BLUE STREET","suburb":"SYDNEY","state":"SA","zip":4609,"mobile":0,"alt_phone":835754887,"home_phone":343406636,"diff":16}}}